CORVUS BC1              
1 42847U 17042Y   18203.52950646  .00015271  00000-0  15099-2 0  9992
2 42847  97.5942 105.1770 0010902  79.7788 280.4644 14.91942632 55630
SILU-1 (SILKROAD 1)     
1 42903U 17021F   18203.22179995  .00021492  00000-0  15378-3 0  9992
2 42903  42.7777 115.7489 0012687 196.2080 294.6568 15.73180035 55440
MIRATA                  
1 43015U 17073C   18202.47715150  .00000605  00000-0  52953-4 0  9993
2 43015  97.7042 132.0588 0258333 159.5701 201.6077 14.78188463 36207
MAKERSAT 0              
1 43016U 17073D   18202.80035849  .00000396  00000-0  36372-4 0  9995
2 43016  97.7069 132.4978 0259815 158.5900 202.6423 14.78185778 36246
ASTERIA                 
1 43020U 98067NH  18203.44873553  .00005881  00000-0  77628-4 0  9998
2 43020  51.6402 197.1099 0002126 323.9419  36.1431 15.59975297 37992
DELLINGR (RBLE)         
1 43021U 98067NJ  18203.54232911  .00005865  00000-0  83401-4 0  9995
2 43021  51.6384 198.4523 0001880 312.9369  47.1465 15.57960453 37980
OSIRIS-3U               
1 43027U 98067NL  18203.45666383  .00029567  00000-0  28588-3 0  9994
2 43027  51.6356 191.8558 0002472 324.6292  35.4540 15.66172421 37943
AEROCUBE 7B             
1 43042U 17071F   18202.60144849  .00001846  00000-0  57146-4 0  9994
2 43042  51.6379 233.8374 0005442  32.9610 327.1713 15.39052715 34900
AEROCUBE 7C             
1 43043U 17071G   18203.18578127  .00001889  00000-0  58233-4 0  9994
2 43043  51.6382 230.9940 0005542  36.9929 323.1436 15.39052335 34962
CHEFSAT                 
1 43044U 17071H   18203.17290137  .00002771  00000-0  78097-4 0  9997
2 43044  51.6390 230.1836 0005502  34.7160 325.4183 15.40074469 34976
ASGARDIA 1              
1 43049U 17071N   18203.16356089  .00002293  00000-0  68191-4 0  9993
2 43049  51.6385 230.8528 0003074  56.3078 303.8199 15.39181044 34951
ISARA                   
1 43050U 17071P   18202.59454008  .00003012  00000-0  84499-4 0  9990
2 43050  51.6383 233.0660 0002953  49.0653 311.0586 15.39885311 34887
FAUNA                   
1 43052U 17071R   18202.49971498  .00002352  00000-0  69394-4 0  9991
2 43052  51.6386 233.9292 0002955  51.2693 308.8556 15.39319848 34858
CORVUS BC3              
1 43118U 18004H   18202.84895787  .00000706  00000-0  33742-4 0  9995
2 43118  97.5308 265.5041 0009975 342.6861  17.4033 15.22304544 28989
MICROMAS-2A             
1 43131U 18004W   18203.12430351  .00001563  00000-0  69661-4 0  9995
2 43131  97.5316 265.9201 0009134 345.7239  14.3738 15.22921762 29037
GOMX4-B                 
1 43196U 18015E   18202.42587967  .00000477  00000-0  22733-4 0  9998
2 43196  97.3498 330.6575 0020266  39.6243 320.6474 15.23679839 25744
GOMX4-A                 
1 43197U 18015F   18203.41360240  .00000339  00000-0  16997-4 0  9994
2 43197  97.3510 331.6314 0020548  37.8661 356.9351 15.23693782 25906
UBAKUSAT                
1 43466U 98067NP  18203.43275986  .00010221  00000-0  14915-3 0  9990
2 43466  51.6383 202.2149 0000582  37.4990 322.6042 15.56310755 11186
1KUNS-PF                
1 43467U 98067NQ  18203.43629197  .00006923  00000-0  10419-3 0  9997
2 43467  51.6385 202.2405 0001937 272.3948  87.6822 15.56067805 11192
BATSU-CS1 (IRAZU)       
1 43468U 98067NR  18203.42603340  .00012374  00000-0  17740-3 0  9990
2 43468  51.6381 202.1701 0000700  44.9718 315.1330 15.56567759111177
